NORAD_CAT_ID,OBJECT_NAME,OBJECT_TYPE,EPOCH,MEAN_MOTION,ECCENTRICITY,INCLINATION,RA_OF_ASC_NODE,ARG_OF_PERICENTER,MEAN_ANOMALY,BSTAR,MEAN_MOTION_DOT,MEAN_MOTION_DDOT,TLE_LINE0,TLE_LINE1,TLE_LINE2,SEMIMAJOR_AXIS,PERIOD,APOGEE,PERIGEE,DECAYED
53277.0,STARLINK-4178,PAYLOAD,2022-08-30 14:00:01,15.7325876,0.0002693,53.2168,219.9708,17.8016,34.4465,-0.00067026,-0.00093901,0.0,0 STARLINK-4178,1 53277U 22086AM  22242.58334491 -.00093901  00000-0 -67026-3 0  9999,2 53277  53.2168 219.9708 0002693  17.8016  34.4465 15.73258760  6466,6727.728,91.53,351.404,347.781,0.0
53277.0,STARLINK-4178,PAYLOAD,2022-08-30 22:00:00,15.73170697,0.0002426,53.2172,218.3201,18.7269,122.4823,0.00042225,0.00058987,0.0,0 STARLINK-4178,1 53277U 22086AM  22242.91667824  .00058987  00000-0  42225-3 0  9992,2 53277  53.2172 218.3201 0002426  18.7269 122.4823 15.73170697  1302,6727.979,91.535,351.476,348.212,0.0
53277.0,STARLINK-4178,PAYLOAD,2022-08-31 14:00:01,15.73194167,0.0002589,53.2174,215.0224,13.1573,305.9217,2.8539e-05,3.384e-05,0.0,0 STARLINK-4178,1 53277U 22086AM  22243.58334491  .00003384  00000-0  28539-4 0  9991,2 53277  53.2174 215.0224 0002589  13.1573 305.9217 15.73194167  1303,6727.9119999999975,91.534,351.519,348.035,0.0
53277.0,STARLINK-4178,PAYLOAD,2022-08-31 20:00:01,15.73185807,0.0002481,53.2173,213.7842,15.5392,280.2227,0.00020519,0.00028258,0.0,0 STARLINK-4178,1 53277U 22086AM  22243.83334491  .00028258  00000-0  20519-3 0  9995,2 53277  53.2173 213.7842 0002481  15.5392 280.2227 15.73185807  6659,6727.936,91.534,351.47,348.131,0.0
53277.0,STARLINK-4178,PAYLOAD,2022-08-31 22:00:00,15.73226192,0.0002513,53.2175,213.3719,17.9531,30.0313,-0.00038554,-0.0005445,0.0,0 STARLINK-4178,1 53277U 22086AM  22243.91667824 -.00054450  00000-0 -38554-3 0  9996,2 53277  53.2175 213.3719 0002513  17.9531  30.0313 15.73226192  1304,6727.821,91.532,351.376,347.995,0.0
53277.0,STARLINK-4178,PAYLOAD,2022-09-01 04:00:01,15.73180626,0.0002723,53.2171,212.1365,20.159,4.6052,-0.00026999,-0.00038317,0.0,0 STARLINK-4178,1 53277U 22086AM  22244.16668981 -.00038317  00000-0 -26999-3 0  9993,2 53277  53.2171 212.1365 0002723  20.1590   4.6052 15.73180626  6716,6727.95,91.534,351.647,347.983,0.0
53277.0,STARLINK-4178,PAYLOAD,2022-09-01 14:00:01,15.73201101,0.0002673,53.2166,210.0742,22.4317,203.4504,-9.0858e-06,-1.897e-05,0.0,0 STARLINK-4178,1 53277U 22086AM  22244.58335648 -.00001897  00000-0 -90858-5 0  9990,2 53277  53.2166 210.0742 0002673  22.4317 203.4504 15.73201101  6771,6727.892,91.533,351.555,347.959,0.0
53277.0,STARLINK-4178,PAYLOAD,2022-09-01 22:00:00,15.73212072,0.0002501,53.2169,208.4239,25.6523,289.0891,0.00039433,0.00055119,0.0,0 STARLINK-4178,1 53277U 22086AM  22244.91667824  .00055119  00000-0  39433-3 0  9995,2 53277  53.2169 208.4239 0002501  25.6523 289.0891 15.73212072  1302,6727.861,91.532,351.408,348.043,0.0
53277.0,STARLINK-4178,PAYLOAD,2022-09-02 06:00:00,15.73249611,0.000274,53.2171,206.7766,22.2125,21.4807,-0.00016616,-0.0002393,0.0,0 STARLINK-4178,1 53277U 22086AM  22245.25001157 -.00023930  00000-0 -16616-3 0  9990,2 53277  53.2171 206.7766 0002740  22.2125  21.4807 15.73249611  6889,6727.754,91.53,351.462,347.775,0.0
53277.0,STARLINK-4178,PAYLOAD,2022-09-02 14:00:01,15.73236264,0.0002563999999999,53.217,205.1258,18.7757,113.8968,-0.00035503,-0.00050237,0.0,0 STARLINK-4178,1 53277U 22086AM  22245.58334491 -.00050237  00000-0 -35503-3 0  9992,2 53277  53.2170 205.1258 0002564  18.7757 113.8968 15.73236264  1308,6727.792,91.531,351.38199999999995,347.932,0.0
53277.0,STARLINK-4178,PAYLOAD,2022-09-02 22:00:01,15.73194244,0.0002400999999999,53.217,203.4757,19.0032,202.6864,2.9666e-05,3.543e-05,0.0,0 STARLINK-4178,1 53277U 22086AM  22245.91668981  .00003543  00000-0  29666-4 0  9993,2 53277  53.2170 203.4757 0002401  19.0032 202.6864 15.73194244  1306,6727.9119999999975,91.534,351.392,348.161,0.0
53277.0,STARLINK-4178,PAYLOAD,2022-09-03 14:00:01,15.73240733,0.0002463,53.216,200.1773,19.1192,20.3663,0.00014238,0.00019443,0.0,0 STARLINK-4178,1 53277U 22086AM  22246.58334491  .00019443  00000-0  14238-3 0  9997,2 53277  53.2160 200.1773 0002463  19.1192  20.3663 15.73240733  7092,6727.779,91.531,351.301,347.987,0.0
53277.0,STARLINK-4178,PAYLOAD,2022-09-03 22:00:00,15.73280646,0.0002409,53.2163,198.5273,24.3785,104.0884,-0.00038497,-0.00054496,0.0,0 STARLINK-4178,1 53277U 22086AM  22246.91667824 -.00054496  00000-0 -38497-3 0  9995,2 53277  53.2163 198.5273 0002409  24.3785 104.0884 15.73280646  1306,6727.665,91.528,351.151,347.91,0.0
53277.0,STARLINK-4178,PAYLOAD,2022-09-04 12:00:00,15.73287828,0.0002481,53.2162,195.6415,18.6279,175.5871,-0.00097033,-0.00135169,0.0,0 STARLINK-4178,1 53277U 22086AM  22247.50001157 -.00135169  00000-0 -97033-3 0  9990,2 53277  53.2162 195.6415 0002481  18.6279 175.5871 15.73287828  7231,6727.645,91.528,351.17900000000014,347.841,0.0
53277.0,STARLINK-4178,PAYLOAD,2022-09-04 14:00:01,15.73244048,0.0002381999999999,53.2164,195.2285,19.1306,287.4101,-0.00048064,-0.00067673,0.0,0 STARLINK-4178,1 53277U 22086AM  22247.58335648 -.00067673  00000-0 -48064-3 0  9997,2 53277  53.2164 195.2285 0002382  19.1306 287.4101 15.73244048  1309,6727.77,91.531,351.237,348.032,0.0
53277.0,STARLINK-4178,PAYLOAD,2022-09-04 16:00:00,15.73194221,0.0002299,53.2164,194.8157,17.8951,40.8355,0.00015785,0.00021585,0.0,0 STARLINK-4178,1 53277U 22086AM  22247.66667824  .00021585  00000-0  15785-3 0  9994,2 53277  53.2164 194.8157 0002299  17.8951  40.8355 15.73194221  7260,6727.9119999999975,91.534,351.3230000000001,348.23,0.0
53277.0,STARLINK-4178,PAYLOAD,2022-09-04 20:00:01,15.73218557,0.0002288,53.2163,193.9906,20.3066,262.8828,-0.00021431,-0.00030617,0.0,0 STARLINK-4178,1 53277U 22086AM  22247.83334491 -.00030617  00000-0 -21431-3 0  9997,2 53277  53.2163 193.9906 0002288  20.3066 262.8828 15.73218557  1304,6727.842,91.532,351.247,348.168,0.0
53277.0,STARLINK-4178,PAYLOAD,2022-09-05 14:00:01,15.73212848,0.0002269,53.2157,190.2798,16.6169,196.7021,-0.0005048,-0.0007092,0.0,0 STARLINK-4178,1 53277U 22086AM  22248.58334491 -.00070920  00000-0 -50480-3 0  9997,2 53277  53.2157 190.2798 0002269  16.6169 196.7021 15.73212848  7401,6727.859,91.532,351.25,348.19699999999995,0.0
53277.0,STARLINK-4178,PAYLOAD,2022-09-05 22:00:00,15.7317574,0.0002156,53.216,188.6304,16.1276,286.0997,-0.00045521,-0.00063964,0.0,0 STARLINK-4178,1 53277U 22086AM  22248.91667824 -.00063964  00000-0 -45521-3 0  9993,2 53277  53.2160 188.6304 0002156  16.1276 286.0997 15.73175740  1305,6727.964,91.535,351.28,348.379,0.0
53277.0,STARLINK-4178,PAYLOAD,2022-09-06 12:00:00,15.73124094,0.0002269,53.2162,185.7446,12.6237,355.0897,0.00020713,0.00028455,0.0,0 STARLINK-4178,1 53277U 22086AM  22249.50001157  .00028455  00000-0  20713-3 0  9990,2 53277  53.2162 185.7446 0002269  12.6237 355.0897 15.73124094  7549,6728.111999999999,91.538,351.50300000000016,348.45,0.0
53277.0,STARLINK-4178,PAYLOAD,2022-09-06 14:00:01,15.7311134,0.0002201999999999,53.2164,185.3318,12.634,107.2889,0.00042043,0.00058576,0.0,0 STARLINK-4178,1 53277U 22086AM  22249.58334491  .00058576  00000-0  42043-3 0  9995,2 53277  53.2164 185.3318 0002202  12.6340 107.2889 15.73111340  1303,6728.148,91.538,351.494,348.531,0.0
53277.0,STARLINK-4178,PAYLOAD,2022-09-06 22:00:00,15.73168958,0.0002198999999999,53.2165,183.6826,16.4044,192.3547,0.00027448,0.00038026,0.0,0 STARLINK-4178,1 53277U 22086AM  22249.91667824  .00038026  00000-0  27448-3 0  9991,2 53277  53.2165 183.6826 0002199  16.4044 192.3547 15.73168958  1300,6727.984,91.535,351.32800000000015,348.369,0.0
53277.0,STARLINK-4178,PAYLOAD,2022-09-07 04:00:00,15.73174602,0.0002431,53.2164,182.447,15.9653,169.4733,0.00051196,0.00071773,0.0,0 STARLINK-4178,1 53277U 22086AM  22250.16667824  .00071773  00000-0  51196-3 0  9993,2 53277  53.2164 182.4470 0002431  15.9653 169.4733 15.73174602  7659,6727.968000000003,91.535,351.468,348.19699999999995,0.0
53277.0,STARLINK-4178,PAYLOAD,2022-09-07 14:00:01,15.73248998,0.0002185,53.2162,180.3835,18.6873,7.9095,-0.00015209,-0.00021958,0.0,0 STARLINK-4178,1 53277U 22086AM  22250.58334491 -.00021958  00000-0 -15209-3 0  9997,2 53277  53.2162 180.3835 0002185  18.6873   7.9095 15.73248998  1302,6727.755,91.53,351.09,348.15,0.0
53277.0,STARLINK-4178,PAYLOAD,2022-09-07 22:00:00,15.73233777,0.0002206,53.2165,178.7343,23.4583,92.1022,-0.00010388,-0.00015197,0.0,0 STARLINK-4178,1 53277U 22086AM  22250.91667824 -.00015197  00000-0 -10388-3 0  9994,2 53277  53.2165 178.7343 0002206  23.4583  92.1022 15.73233777  7778,6727.799,91.531,351.148,348.18,0.0
53277.0,STARLINK-4178,PAYLOAD,2022-09-08 14:00:01,15.73172209,0.0002238,53.2171,175.435,23.812,269.6736,0.00023026,0.00031781,0.0,0 STARLINK-4178,1 53277U 22086AM  22251.58334491  .00031781  00000-0  23026-3 0  9997,2 53277  53.2171 175.4350 0002238  23.8120 269.6736 15.73172209  1301,6727.974,91.535,351.345,348.334,0.0
53277.0,STARLINK-4178,PAYLOAD,2022-09-08 22:00:00,15.73231661,0.0002281,53.2172,173.7861,25.7619,356.622,-0.00013972,-0.00020212,0.0,0 STARLINK-4178,1 53277U 22086AM  22251.91667824 -.00020212  00000-0 -13972-3 0  9991,2 53277  53.2172 173.7861 0002281  25.7619 356.6220 15.73231661  1305,6727.805,91.531,351.205,348.135,0.0
53277.0,STARLINK-4178,PAYLOAD,2022-09-09 04:00:00,15.73219164,0.0002381,53.2171,172.5504,22.6226,336.4998,-0.00010962,-0.00015992,0.0,0 STARLINK-4178,1 53277U 22086AM  22252.16667824 -.00015992  00000-0 -10962-3 0  9994,2 53277  53.2171 172.5504 0002381  22.6226 336.4998 15.73219164  7966,6727.840999999999,91.532,351.307,348.10400000000016,0.0
53277.0,STARLINK-4178,PAYLOAD,2022-09-09 14:00:01,15.73237843,0.000202,53.2168,170.4865,18.5555,181.7592,-0.00017039,-0.00024505,0.0,0 STARLINK-4178,1 53277U 22086AM  22252.58334491 -.00024505  00000-0 -17039-3 0  9993,2 53277  53.2168 170.4865 0002020  18.5555 181.7592 15.73237843  1305,6727.7869999999975,91.531,351.011,348.293,0.0
